[{"OBJECT_NAME":"STARLINK-3107","OBJECT_ID":"2021-082AT","EPOCH":"2026-03-09T21:59:27.140640","MEAN_MOTION":15.10504087,"ECCENTRICITY":0.00073375,"INCLINATION":69.9932,"RA_OF_ASC_NODE":287.3824,"ARG_OF_PERICENTER":250.2407,"MEAN_ANOMALY":109.7967,"EPHEMERIS_TYPE":0,"CLASSIFICATION_TYPE":"U","NORAD_CAT_ID":49171,"ELEMENT_SET_NO":999,"REV_AT_EPOCH":24733,"BSTAR":0.001517345,"MEAN_MOTION_DOT":0.00025048,"MEAN_MOTION_DDOT":0},{"OBJECT_NAME":"STARLINK-3863","OBJECT_ID":"2022-049Q","EPOCH":"2026-03-09T22:20:28.721472","MEAN_MOTION":15.08837328,"ECCENTRICITY":0.00013682,"INCLINATION":53.2178,"RA_OF_ASC_NODE":48.0387,"ARG_OF_PERICENTER":86.6812,"MEAN_ANOMALY":273.4337,"EPHEMERIS_TYPE":0,"CLASSIFICATION_TYPE":"U","NORAD_CAT_ID":52465,"ELEMENT_SET_NO":999,"REV_AT_EPOCH":21242,"BSTAR":5.707138e-5,"MEAN_MOTION_DOT":6.2e-6,"MEAN_MOTION_DDOT":0}]
